O3B FM5                 
1 39188U 13031A   22227.04511217 -.00000027  00000+0  00000+0 0  9991
2 39188   0.0557  22.0644 0002572 124.1159 213.8327  5.00115247166896
O3B FM4                 
1 39189U 13031B   22226.50150246 -.00000027  00000+0  00000+0 0  9993
2 39189   0.0559 352.8466 0002535 152.1556 215.0109  5.00115789166877
O3B FM2                 
1 39190U 13031C   22227.59243491 -.00000027  00000+0  00000+0 0  9990
2 39190   0.0585 348.2290 0002573 157.3160 214.4685  5.00116814166997
O3B PFM                 
1 39191U 13031D   22225.81964428 -.00000027  00000+0  00000+0 0  9994
2 39191   0.0526  13.0737 0002645 129.6464 217.2946  5.00115665166461
O3B FM3                 
1 40079U 14038A   22227.67341157 -.00000027  00000+0  00000+0 0  9993
2 40079   0.0550   0.8228 0005028 137.6685 221.5437  5.00115365142932
O3B FM7                 
1 40080U 14038B   22225.42068661 -.00000027  00000+0  00000+0 0  9992
2 40080   0.0587 358.5688 0001161 182.7542 178.6730  5.00115418147644
O3B FM6                 
1 40081U 14038C   22227.84574817 -.00000027  00000+0  00000+0 0  9996
2 40081   0.0543 359.9478 0002692 145.4409 214.6257  5.00115414148043
O3B FM8                 
1 40082U 14038D   22227.69980268 -.00000027  00000+0  00000+0 0  9991
2 40082   0.0538 356.5978 0002675 145.4822 217.9356  5.00115641147830
O3B FM10                
1 40348U 14083A   22227.12615276 -.00000027  00000+0  00000+0 0  9998
2 40348   0.0494   8.4948 0002627 135.2873 216.2324  5.00115162139753
O3B FM11                
1 40349U 14083B   22228.13907718 -.00000027  00000+0  00000+0 0  9996
2 40349   0.0541   9.6132 0002306 149.9179 200.4753  5.00115429139971
O3B FM12                
1 40350U 14083C   22226.96693348 -.00000027  00000+0  00000+0 0  9998
2 40350   0.0536   8.7934 0002707 139.2075 212.0121  5.00115222139776
O3B FM9                 
1 40351U 14083D   22227.39365148 -.00000027  00000+0  00000+0 0  9991
2 40351   0.0551  10.2171 0002584 134.9970 214.7995  5.00115585139932
DIAMOND RED             
1 42783U 17036U   22228.04926229  .00006838  00000+0  25025-3 0  9992
2 42783  97.1950 266.8145 0012116 115.2424 245.0074 15.28287029286045
DIAMOND GREEN           
1 42785U 17036W   22228.04931136  .00007586  00000+0  27764-3 0  9990
2 42785  97.1952 266.8778 0011943 116.3658 243.8809 15.28247298286034
DIAMOND BLUE            
1 42786U 17036X   22227.52451987  .00007199  00000+0  26365-3 0  9990
2 42786  97.1954 266.3631 0011979 118.3999 241.8450 15.28242829285954
LEO VANTAGE 1           
1 43113U 18004C   22227.39721330  .00001203  00000+0  10270-3 0  9996
2 43113  99.2457 313.7097 0401217  14.3838 346.8389 14.54031149232800
O3B FM15                
1 43231U 18024A   22228.05926643 -.00000027  00000+0  00000+0 0  9997
2 43231   0.0460   8.0172 0002889 139.4751 212.5225  5.00115969 81105
O3B FM16                
1 43232U 18024B   22227.91275621 -.00000027  00000+0  00000+0 0  9995
2 43232   0.0418   8.6884 0002864 139.1011 212.2249  5.00115867 81081
O3B FM14                
1 43233U 18024C   22226.55312002 -.00000027  00000+0  00000+0 0  9990
2 43233   0.0403   7.8303 0002680 139.9265 212.2560  5.00115261 80788
O3B FM13                
1 43234U 18024D   22226.80650651 -.00000027  00000+0  00000+0 0  9994
2 43234   0.0484  34.6114 0003558 120.7867 204.6154  5.00114991 80915
O3B FM20                
1 44112U 19020A   22227.97907591 -.00000027  00000+0  00000+0 0  9994
2 44112   0.0494   7.6193 0002936 147.1211 205.2709  5.00115446 61541
O3B FM19                
1 44113U 19020B   22228.14738196 -.00000027  00000+0  00000+0 0  9998
2 44113   0.0571  16.5872 0001834 139.2785  99.0313  5.00114806 61555
O3B FM17                
1 44114U 19020C   22228.48617405 -.00000027  00000+0  00000+0 0  9995
2 44114   0.0414 344.2198 0003001 164.7183 211.0768  5.00115531 61564
O3B FM18                
1 44115U 19020D   22228.03292376 -.00000027  00000+0  00000+0 0  9993
2 44115   0.0496   8.0792 0002872 136.9667 214.9700  5.00115753 61545
SALSAT                  
1 46495U 20068K   22227.81707062  .00001268  00000+0  94240-4 0  9999
2 46495  97.7311 169.1511 0018267  77.6925 282.6345 15.04713915103114
